ZHOU ENLAI              
1 43156U 18008B   21192.81437307  .00000918  00000-0  56858-4 0  9998
2 43156  97.4052 256.8847 0012732 242.1189 211.2483 15.12119940191690
QUANTUTONG 1            
1 43158U 18008D   21192.77192917  .00001323  00000-0  81657-4 0  9996
2 43158  97.3987 255.3830 0012029 240.6628 245.5084 15.11544775191610
S-NET D                 
1 43186U 18014G   21192.55180216  .00000706  00000-0  66190-4 0  9998
2 43186  97.6758  99.7051 0011008  10.2586 349.8858 14.97083349187907
S-NET B                 
1 43187U 18014H   21192.28437647  .00000652  00000-0  61543-4 0  9999
2 43187  97.6756  99.4082 0011030  10.9864 349.1596 14.97082298187867
S-NET A                 
1 43188U 18014J   21192.21760808  .00000649  00000-0  61219-4 0  9997
2 43188  97.6759  99.3884 0011033  11.3028 348.8439 14.97081061187858
S-NET C                 
1 43189U 18014K   21192.68595924  .00000732  00000-0  68447-4 0  9997
2 43189  97.6755  99.7949 0011003   9.7917 350.3517 14.97081895186473
FENGMANIU-1 (FMN-1)     
1 43192U 18015A   21192.77809111  .00003835  00000-0  14172-3 0  9990
2 43192  97.4921 328.2708 0015156 151.5261 347.2281 15.28248760191306
SHAONIAN XING           
1 43199U 18015H   21192.81544654  .00002654  00000-0  10060-3 0  9990
2 43199  97.4702 325.3753 0016386 161.0784   3.9431 15.27674802191368
LUOJIA-1 01             
1 43485U 18048B   21192.85812416  .00000169  00000-0  31270-4 0  9998
2 43485  97.9614 274.2119 0010441 212.5806 147.4750 14.76867273167599
SURFSAT                 
1 43614U 18070B   21192.35691571  .00003639  00000-0  84344-4 0  9994
2 43614  93.0347 315.9483 0011300 270.4670  89.5291 15.42413318158358
CP7 (DAVE)              
1 43615U 18070C   21192.31386634  .00003386  00000-0  79275-4 0  9998
2 43615  93.0352 315.8833 0011494 270.9010  89.0929 15.42113158158330
ELFIN-B                 
1 43616U 18070D   21192.35531862  .00006383  00000-0  13468-3 0  9999
2 43616  93.0306 316.1195 0011267 266.7260  93.2708 15.45168525158460
ELFIN-A                 
1 43617U 18070E   21192.37236866  .00006580  00000-0  13651-3 0  9991
2 43617  93.0355 316.9960 0010733 262.3849  97.6190 15.45667960158487
STARS-ME                
1 43640U 98067PQ  21177.48090856  .06251270  12411-4  46174-3 0  9996
2 43640  51.6078 176.1291 0003401 286.8094  73.2559 16.39860287155785
CZ-4B R/B               
1 43656U 18081B   21192.53832042 -.00000028  00000-0  88350-5 0  9994
2 43656  99.3666 294.6218 0209151  44.0065 317.7555 14.30472411141617
CUBEBEL-1 (BSUSAT-1)    
1 43666U 18083E   21192.88341497  .00001731  00000-0  84662-4 0  9996
2 43666  97.4539 220.9433 0016426  84.5326  39.5248 15.19444083149727
CHANGSHAGAOXIN (TY 4-01)
1 43669U 18083H   21192.89246590  .00001249  00000-0  64302-4 0  9991
2 43669  97.4448 217.9499 0012462  80.3737  40.9776 15.18197194149597
TEN-KOH                 
1 43677U 18084G   21192.55635314  .00000254  00000-0  31907-4 0  9990
2 43677  97.9234 315.6593 0014990 319.2394  40.7701 14.90484070146893
DIWATA-2B               
1 43678U 18084H   21192.86925526  .00000250  00000-0  30588-4 0  9992
2 43678  97.9265 318.2757 0009462 338.8871  21.1900 14.91765736147071
STARS-AO                
1 43679U 18084J   21192.63234353  .00000517  00000-0  56013-4 0  9996
2 43679  97.9312 319.2926 0008622 346.8986  13.2007 14.92540813147097
AUTCUBE 2               
1 43681U 18084K   21192.33383635  .00000014  00000-0  70673-5 0  9995
2 43681  97.9277 318.0733 0008833 341.1374  18.9516 14.92108242146975
IRVINE01                
1 43693U 18088D   21192.42763592  .00003336  00000-0  12859-3 0  9996
2 43693  85.0343 179.0238 0013858 301.2889  58.6997 15.25832300148091
ES'HAIL 2               
1 43700U 18090A   21192.46596869  .00000151  00000-0  00000-0 0  9997
2 43700   0.0172  76.9161 0001278  67.6689 338.5605  1.00274024  9612
FACSAT-1                
1 43721U 18096C   21192.80846912  .00002762  00000-0  10035-3 0  9993
2 43721  97.3857 269.7637 0016718 179.2676 274.3780 15.29023564145849
CENTAURI-2              
1 43722U 18096D   21192.48203104  .00002777  00000-0  97380-4 0  9993
2 43722  97.3875 270.2860 0016499 178.8853 181.2428 15.30181008145837
3CAT-1                  
1 43728U 18096K   21192.75530339  .00003531  00000-0  12196-3 0  9992
2 43728  97.3890 271.1411 0016287 181.9066 294.9387 15.30488774145902
INNOSAT-2               
1 43738U 18096V   21192.87645652  .00005264  00000-0  16244-3 0  9994
2 43738  97.3940 274.6047 0021439 179.0068 293.2885 15.33789731146149
REAKTOR HELLO WORLD     
1 43743U 18096AA  21192.46960334  .00001725  00000-0  63879-4 0  9997
2 43743  97.3856 269.7993 0016950 185.9272 174.1771 15.28913868145808
ELYSIUM STAR 2 & LFF    
1 43760U 18099C   21192.73433329  .00001032  00000-0  96074-4 0  9992
2 43760  97.6692 263.5405 0012573 331.5368  28.5166 14.96375096142143
2018-099D               
1 43761U 18099D   21192.63855356  .00000466  00000-0  47350-4 0  9993
2 43761  97.6659 262.7301 0014096 335.9937  24.0620 14.95323123142087
AISTECHSAT 2            
1 43768U 18099L   21192.46742478  .00000568  00000-0  57187-4 0  9993
2 43768  97.6612 261.4385 0010596 336.5136  23.5599 14.94927847141732
FOX-1CLIFF (AO-95)      
1 43770U 18099N   21192.74040320  .00000785  00000-0  76253-4 0  9990
2 43770  97.6641 262.3903 0013784 342.7475  17.3275 14.95354302142082
RANGE-A                 
1 43772U 18099Q   21192.36238883  .00000302  00000-0  32276-4 0  9995
2 43772  97.6732 263.0531 0013157 330.7851  29.2633 14.95662913142034
RANGE-B                 
1 43773U 18099R   21192.14539573  .00000575  00000-0  57400-4 0  9990
2 43773  97.6576 261.1082 0012584 331.8760  28.1780 14.95238792141983
2018-099T               
1 43775U 18099T   21192.14546829  .00000586  00000-0  58307-4 0  9993
2 43775  97.6645 262.0167 0013768 335.6739  24.3830 14.95306135141991
MOVE-II                 
1 43780U 18099Y   21192.42435110  .00000606  00000-0  59079-4 0  9990
2 43780  97.6663 262.6432 0012661 341.3601  18.7155 14.95977832142054
SNUSAT-2                
1 43782U 18099AA  21192.76920074 -.00000094  00000-0 -32878-5 0  9999
2 43782  97.6640 262.7684 0011842 328.6252  31.4261 14.95593680142102
SNUGLITE                
1 43784U 18099AC  21192.44103796 -.00000104  00000-0 -41506-5 0  9990
2 43784  97.6603 262.1677 0014352 336.5283  23.5281 14.95720761142072
ITASAT 1                
1 43786U 18099AE  21192.45416259  .00000130  00000-0  16835-4 0  9997
2 43786  97.6659 262.8054 0014388 335.5736  24.4801 14.95641818142075
KAZSCISAT-1             
1 43787U 18099AF  21192.63620070  .00000075  00000-0  11780-4 0  9998
2 43787  97.6575 262.1606 0013237 332.4244  27.6274 14.96148595142121
EAGLET-I                
1 43790U 18099AJ  21192.48307746  .00000721  00000-0  69323-4 0  9991
2 43790  97.6653 263.2551 0012677 341.0716  19.0032 14.95993904141802
ESEO                    
1 43792U 18099AL  21192.47168924  .00000505  00000-0  50372-4 0  9999
2 43792  97.6615 262.8176 0012491 337.7228  22.3449 14.95752815141852
CSIM-FD                 
1 43793U 18099AM  21192.48267661  .00001100  00000-0  10141-3 0  9990
2 43793  97.6651 263.2561 0011770 334.4570  25.6069 14.96640913141860
ASTROCAST 0.1           
1 43798U 18099AS  21192.76354748  .00000201  00000-0  22871-4 0  9994
2 43798  97.6660 263.7357 0011191 318.9784  41.0595 14.96225629142156
JY1SAT (JO-97)          
1 43803U 18099AX  21192.48092085  .00000780  00000-0  74713-4 0  9997
2 43803  97.6624 262.5804 0014182 336.2886  23.7680 14.95897698142080
SUOMI-100               
1 43804U 18099AY  21192.41999787  .00000561  00000-0  55246-4 0  9993
2 43804  97.6622 262.4856 0014328 336.6969  23.3601 14.95868065142088
AL-FARABI 2             
1 43805U 18099AZ  21192.88567499  .00001120  00000-0  10454-3 0  9999
2 43805  97.6631 263.1736 0014333 335.1588  24.8944 14.96095466142164
CENTAURI-1              
1 43809U 18099BD  21192.76620728 -.00000068  00000-0 -95447-6 0  9995
2 43809  97.6634 263.1321 0014472 336.2006  23.8544 14.95861513141833
CHOMPTT                 
1 43855U 18104G   21192.48519776  .00001223  00000-0  48448-4 0  9991
2 43855  85.0375 277.5745 0018995  61.9973 298.3189 15.24071916142754
DAVINCI                 
1 43857U 18104J   21192.52331644  .00003617  00000-0  13987-3 0  9992
2 43857  85.0324 277.2796 0016802  84.8503 275.4658 15.25701790142759
UWE-4                   
1 43880U 18111E   21192.71581086 -.00000069  00000-0 -95256-6 0  9996
2 43880  97.6857 100.0346 0013170  28.8346 331.3601 14.96904674136719
ZACUBE-2                
1 43907U 18111AH  21192.79800241  .00000845  00000-0  36243-4 0  9990
2 43907  97.2305  86.1225 0020138 203.0693 244.0854 15.25252106141341
MICRODRAGON             
1 43935U 19003D   21192.36704342  .00000876  00000-0  39631-4 0  9998
2 43935  97.1792 232.7688 0016348 305.4131  54.5579 15.23339259137745
AOBA VELOX-IV           
1 43940U 19003J   21192.67709650  .00003001  00000-0  11367-3 0  9993
2 43940  97.1755 235.8545 0020412 283.9791  75.9178 15.27478645138004
M6P                     
1 44109U 19018AF  21192.76684528  .00001884  00000-0  58936-4 0  9994
2 44109  97.4260 270.0182 0053815 266.2128  93.2960 15.33087423127181
SPOOQY-1                
1 44332U 98067QH  21192.49862316  .00042257  00000-0  23395-3 0  9995
2 44332  51.6319 161.7764 0005147  44.7758 315.3657 15.79123573117896
FORMOSAT 7-4            
1 44350U 19036M   21192.35122852  .00000779  00000-0  27920-4 0  9995
2 44350  23.9982 206.0421 0005870 338.6744  21.3515 15.07828097111907
PAINANI 1               
1 44365U 19037A   21192.50372965  .00003450  00000-0  88651-4 0  9998
2 44365  45.0050 123.7248 0005006 339.9731  20.0961 15.41491838114481
ACRUX 1                 
1 44369U 19037E   21192.46815290  .00007370  00000-0  14504-3 0  9990
2 44369  45.0062  99.9860 0009511 330.5875  29.4480 15.47904541114714
